PAKSAT-1R               
1 37779U 11042A   17346.17476499  .00000149  00000-0  00000+0 0  9992
2 37779   0.0400 133.9582 0003354 127.7079 280.2762  1.00274957 23106
